H1 CPF 01  gfz 2022 10 11 00  7841 terrasarx 
H2 0702601  6201 31698    2022 10 11 00 59 42 2022 10 16 00 00 42   120 1 1  0 0 0
H9
10 0 59867  71982.000000  0    5500316.799  -2632584.799  -3214094.078
10 0 59867  72102.000000  0    5746862.841  -2961010.729  -2389629.354
10 0 59867  72222.000000  0    5887865.242  -3241190.739  -1523197.509
10 0 59867  72342.000000  0    5921679.678  -3466328.160   -629991.999
10 0 59867  72462.000000  0    5848656.293  -3630576.896    274294.668
10 0 59867  72582.000000  0    5671122.660  -3729183.859   1173752.759
10 0 59867  72702.000000  0    5393327.333  -3758611.279   2052544.460
10 0 59867  72822.000000  0    5021342.202  -3716632.623   2895192.527
10 0 59867  72942.000000  0    4562929.263  -3602402.095   3686859.926
10 0 59867  73062.000000  0    4027375.731  -3416495.164   4413616.488
10 0 59867  73182.000000  0    3425300.855  -3160920.987   5062687.960
10 0 59867  73302.000000  0    2768437.589  -2839104.189   5622680.810
10 0 59867  73422.000000  0    2069398.118  -2455837.559   6083779.290
10 0 59867  73542.000000  0    1341426.379  -2017208.046   6437912.546
10 0 59867  73662.000000  0     598143.737  -1530497.386   6678889.785
10 0 59867  73782.000000  0    -146707.516  -1004058.700   6802502.448
10 0 59867  73902.000000  0    -879518.036   -447171.610   6806592.612
10 0 59867  74022.000000  0   -1587058.842    130121.332   6691087.832
10 0 59867  74142.000000  0   -2256719.118    717195.291   6458002.453
10 0 59867  74262.000000  0   -2876730.635   1303037.802   6111404.944
10 0 59867  74382.000000  0   -3436375.574   1876454.321   5657351.665
10 0 59867  74502.000000  0   -3926175.205   2426281.940   5103787.860
10 0 59867  74622.000000  0   -4338055.693   2941608.380   4460414.855
10 0 59867  74742.000000  0   -4665487.601   3411990.539   3738524.621
10 0 59867  74862.000000  0   -4903595.507   3827668.337   2950804.205
10 0 59867  74982.000000  0   -5049235.065   4179770.137   2111113.503
10 0 59867  75102.000000  0   -5101036.778   4460504.925   1234239.138
10 0 59867  75222.000000  0   -5059412.882   4663335.037    335627.596
10 0 59867  75342.000000  0   -4926528.142   4783123.694   -568894.274
10 0 59867  75462.000000  0   -4706235.971   4816256.629  -1463407.071
10 0 59867  75582.000000  0   -4403978.338   4760732.881  -2332189.127
10 0 59867  75702.000000  0   -4026654.777   4616221.069  -3160000.457
10 0 59867  75822.000000  0   -3582463.216   4384081.041  -3932354.880
10 0 59867  75942.000000  0   -3080717.671   4067351.562  -4635773.259
10 0 59867  76062.000000  0   -2531648.914   3670705.355  -5258013.815
10 0 59867  76182.000000  0   -1946193.871   3200374.589  -5788277.558
10 0 59867  76302.000000  0   -1335776.090   2664046.738  -6217387.178
10 0 59867  76422.000000  0    -712082.481   2070732.926  -6537934.825
10 0 59867  76542.000000  0     -86841.831   1430613.831  -6744398.046
10 0 59867  76662.000000  0     528391.091    754865.042  -6833224.971
10 0 59867  76782.000000  0    1122443.807     55465.260  -6802889.861
10 0 59867  76902.000000  0    1684725.131   -655012.252  -6653916.218
10 0 59867  77022.000000  0    2205408.960  -1363620.132  -6388867.388
10 0 59867  77142.000000  0    2675602.835  -2057266.733  -6012307.522
10 0 59867  77262.000000  0    3087498.643  -2722952.207  -5530731.850
10 0 59867  77382.000000  0    3434504.620  -3348010.726  -4952466.988
10 0 59867  77502.000000  0    3711354.362  -3920352.595  -4287536.132
10 0 59867  77622.000000  0    3914189.570  -4428699.094  -3547495.251
10 0 59867  77742.000000  0    4040617.873  -4862808.802  -2745242.089
10 0 59867  77862.000000  0    4089743.532  -5213690.649  -1894797.387
10 0 59867  77982.000000  0    4062167.118  -5473797.118  -1011060.714
10 0 59867  78102.000000  0    3959955.308  -5637191.390   -109547.003
10 0 59867  78222.000000  0    3786580.150  -5699684.716    793891.753
10 0 59867  78342.000000  0    3546829.680  -5658940.058   1683352.908
10 0 59867  78462.000000  0    3246691.614  -5514537.825   2543173.276
10 0 59867  78582.000000  0    2893211.660  -5268002.034   3358212.768
10 0 59867  78702.000000  0    2494332.638  -4922788.311   4114127.242
10 0 59867  78822.000000  0    2058718.307  -4484232.738   4797625.201
10 0 59867  78942.000000  0    1595565.351  -3959463.238   5396703.022
10 0 59867  79062.000000  0    1114409.070  -3357276.216   5900854.883
10 0 59867  79182.000000  0     624925.523  -2687980.673   6301252.937
10 0 59867  79302.000000  0     136736.561  -1963215.484   6590894.896
10 0 59867  79422.000000  0    -340778.399  -1195743.367   6764719.554
10 0 59867  79542.000000  0    -798661.232   -399224.584   6819691.078
10 0 59867  79662.000000  0   -1228542.052    412027.365   6754848.903
10 0 59867  79782.000000  0   -1622791.700   1223302.619   6571323.164
10 0 59867  79902.000000  0   -1974656.867   2019760.709   6272316.114
10 0 59867  80022.000000  0   -2278376.512   2786701.435   5863049.891
10 0 59867  80142.000000  0   -2529277.023   3509837.056   5350680.637
10 0 59867  80262.000000  0   -2723845.626   4175561.095   4744180.382
10 0 59867  80382.000000  0   -2859780.748   4771209.913   4054185.955
10 0 59867  80502.000000  0   -2936017.059   5285310.926   3292816.410
10 0 59867  80622.000000  0   -2952724.633   5707811.686   2473461.053
10 0 59867  80742.000000  0   -2911282.346   6030283.754   1610542.433
10 0 59867  80862.000000  0   -2814225.919   6246097.217    719258.515
10 0 59867  80982.000000  0   -2665171.282   6350561.526   -184691.341
10 0 59867  81102.000000  0   -2468715.868   6341028.494  -1085391.469
10 0 59867  81222.000000  0   -2230319.966   6216954.178  -1967001.198
10 0 59867  81342.000000  0   -1956168.990   5979914.170  -2814043.764
10 0 59867  81462.000000  0   -1653022.869   5633576.527  -3611681.431
10 0 59867  81582.000000  0   -1328057.778   5183635.792  -4345976.622
10 0 59867  81702.000000  0    -988703.044   4637707.375  -5004133.198
10 0 59867  81822.000000  0    -642477.399   4005188.115  -5574713.281
10 0 59867  81942.000000  0    -296827.542   3297085.237  -6047828.601
10 0 59867  82062.000000  0      41027.527   2525816.381  -6415301.940
10 0 59867  82182.000000  0     364242.184   1704987.195  -6670796.065
10 0 59867  82302.000000  0     666477.830    849151.714  -6809913.077
10 0 59867  82422.000000  0     942023.244    -26443.091  -6830262.165
10 0 59867  82542.000000  0    1185899.126   -906124.178  -6731495.850
10 0 59867  82662.000000  0    1393945.343  -1774066.349  -6515313.590
10 0 59867  82782.000000  0    1562890.353  -2614568.793  -6185435.665
10 0 59867  82902.000000  0    1690402.784  -3412333.001  -5747547.575
10 0 59867  83022.000000  0    1775122.873  -4152740.343  -5209213.017
10 0 59867  83142.000000  0    1816673.769  -4822121.282  -4579752.653
10 0 59867  83262.000000  0    1815652.764  -5408010.605  -3870093.715
10 0 59867  83382.000000  0    1773601.869  -5899387.855  -3092590.786
10 0 59867  83502.000000  0    1692957.133  -6286895.436  -2260817.495
10 0 59867  83622.000000  0    1576978.930  -6563028.087  -1389332.230
10 0 59867  83742.000000  0    1429664.138  -6722289.219   -493423.133
10 0 59867  83862.000000  0    1255641.517  -6761310.839    411164.986
10 0 59867  83982.000000  0    1060053.917  -6678929.521   1308514.020
10 0 59867  84102.000000  0     848428.350  -6476220.731   2182821.515
10 0 59867  84222.000000  0     626539.619  -6156485.715   3018689.275
10 0 59867  84342.000000  0     400268.356  -5725192.690   3801402.350
10 0 59867  84462.000000  0     175458.486  -5189875.890   4517192.460
10 0 59867  84582.000000  0     -42221.649  -4559995.229   5153482.755
10 0 59867  84702.000000  0    -247411.772  -3846758.892   5699108.386
10 0 59867  84822.000000  0    -435182.002  -3062914.080   6144510.029
10 0 59867  84942.000000  0    -601143.337  -2222509.830   6481895.263
10 0 59867  85062.000000  0    -741543.882  -1340640.790   6705367.103
10 0 59867  85182.000000  0    -853348.978   -433174.438   6811022.141
10 0 59867  85302.000000  0    -934304.440    483535.661   6797015.503
10 0 59867  85422.000000  0    -982981.082   1392944.577   6663590.949
10 0 59867  85542.000000  0    -998799.500   2278613.979   6413076.703
10 0 59867  85662.000000  0    -982035.619   3124508.823   6049847.447
10 0 59867  85782.000000  0    -933807.183   3915288.859   5580252.789
10 0 59867  85902.000000  0    -856040.451   4636589.832   5012511.697
10 0 59867  86022.000000  0    -751418.545   5275290.263   4356575.402
10 0 59867  86142.000000  0    -623311.819   5819758.735   3623956.701
10 0 59867  86262.000000  0    -475691.645   6260073.388   2827532.076
10 0 59867  86382.000000  0    -313030.926   6588216.336   1981316.382
99
